[{"OBJECT_NAME":"SL-8 R/B","OBJECT_ID":"1991-006B","EPOCH":"2026-03-30T04:10:30.813600","MEAN_MOTION":13.77497446,"ECCENTRICITY":0.0021759,"INCLINATION":82.9443,"RA_OF_ASC_NODE":154.8167,"ARG_OF_PERICENTER":341.2995,"MEAN_ANOMALY":47.5654,"EPHEMERIS_TYPE":0,"CLASSIFICATION_TYPE":"U","NORAD_CAT_ID":21088,"ELEMENT_SET_NO":999,"REV_AT_EPOCH":76689,"BSTAR":9.7488e-5,"MEAN_MOTION_DOT":1.12e-6,"MEAN_MOTION_DDOT":0},{"OBJECT_NAME":"OKEAN-3","OBJECT_ID":"1991-039A","EPOCH":"2026-03-30T02:12:53.307360","MEAN_MOTION":15.049229,"ECCENTRICITY":0.0012397,"INCLINATION":82.5161,"RA_OF_ASC_NODE":317.075,"ARG_OF_PERICENTER":261.4906,"MEAN_ANOMALY":98.4916,"EPHEMERIS_TYPE":0,"CLASSIFICATION_TYPE":"U","NORAD_CAT_ID":21397,"ELEMENT_SET_NO":999,"REV_AT_EPOCH":86810,"BSTAR":0.00024136,"MEAN_MOTION_DOT":3.449e-5,"MEAN_MOTION_DDOT":0},{"OBJECT_NAME":"COSMOS 2151","OBJECT_ID":"1991-042A","EPOCH":"2026-03-30T03:51:33.778368","MEAN_MOTION":15.00194277,"ECCENTRICITY":0.0012213,"INCLINATION":82.4948,"RA_OF_ASC_NODE":63.9228,"ARG_OF_PERICENTER":358.9747,"MEAN_ANOMALY":1.1449,"EPHEMERIS_TYPE":0,"CLASSIFICATION_TYPE":"U","NORAD_CAT_ID":21422,"ELEMENT_SET_NO":999,"REV_AT_EPOCH":86626,"BSTAR":0.00021261,"MEAN_MOTION_DOT":2.686e-5,"MEAN_MOTION_DDOT":0},{"OBJECT_NAME":"SL-14 R/B","OBJECT_ID":"1991-042B","EPOCH":"2026-03-29T01:40:48.787968","MEAN_MOTION":14.81848936,"ECCENTRICITY":0.0017235,"INCLINATION":82.4956,"RA_OF_ASC_NODE":202.0127,"ARG_OF_PERICENTER":172.6233,"MEAN_ANOMALY":187.5238,"EPHEMERIS_TYPE":0,"CLASSIFICATION_TYPE":"U","NORAD_CAT_ID":21423,"ELEMENT_SET_NO":999,"REV_AT_EPOCH":85594,"BSTAR":6.3049e-5,"MEAN_MOTION_DOT":5.23e-6,"MEAN_MOTION_DDOT":0},{"OBJECT_NAME":"ERS-1","OBJECT_ID":"1991-050A","EPOCH":"2026-03-30T01:32:06.120672","MEAN_MOTION":14.39464879,"ECCENTRICITY":0.0032735,"INCLINATION":98.7864,"RA_OF_ASC_NODE":107.8096,"ARG_OF_PERICENTER":140.3979,"MEAN_ANOMALY":219.9608,"EPHEMERIS_TYPE":0,"CLASSIFICATION_TYPE":"U","NORAD_CAT_ID":21574,"ELEMENT_SET_NO":999,"REV_AT_EPOCH":81866,"BSTAR":0.00014146,"MEAN_MOTION_DOT":3.97e-6,"MEAN_MOTION_DDOT":0},{"OBJECT_NAME":"ARIANE 40 R/B","OBJECT_ID":"1991-050F","EPOCH":"2026-03-30T01:35:40.540416","MEAN_MOTION":14.42908335,"ECCENTRICITY":0.0003473,"INCLINATION":98.1969,"RA_OF_ASC_NODE":140.5341,"ARG_OF_PERICENTER":34.5763,"MEAN_ANOMALY":325.5653,"EPHEMERIS_TYPE":0,"CLASSIFICATION_TYPE":"U","NORAD_CAT_ID":21610,"ELEMENT_SET_NO":999,"REV_AT_EPOCH":82193,"BSTAR":0.00012012,"MEAN_MOTION_DOT":3.6e-6,"MEAN_MOTION_DDOT":0},{"OBJECT_NAME":"INTERCOSMOS 25","OBJECT_ID":"1991-086A","EPOCH":"2026-03-30T01:07:17.101344","MEAN_MOTION":12.12068637,"ECCENTRICITY":0.148647,"INCLINATION":82.6008,"RA_OF_ASC_NODE":297.7011,"ARG_OF_PERICENTER":73.072,"MEAN_ANOMALY":302.7571,"EPHEMERIS_TYPE":0,"CLASSIFICATION_TYPE":"U","NORAD_CAT_ID":21819,"ELEMENT_SET_NO":999,"REV_AT_EPOCH":49915,"BSTAR":0.0004234,"MEAN_MOTION_DOT":2.192e-5,"MEAN_MOTION_DDOT":0},{"OBJECT_NAME":"SL-8 R/B","OBJECT_ID":"1992-008B","EPOCH":"2026-03-30T04:15:56.705760","MEAN_MOTION":13.7596956,"ECCENTRICITY":0.003587,"INCLINATION":82.9233,"RA_OF_ASC_NODE":252.5334,"ARG_OF_PERICENTER":78.0589,"MEAN_ANOMALY":94.2018,"EPHEMERIS_TYPE":0,"CLASSIFICATION_TYPE":"U","NORAD_CAT_ID":21876,"ELEMENT_SET_NO":999,"REV_AT_EPOCH":71223,"BSTAR":-2.522e-6,"MEAN_MOTION_DOT":1.3e-7,"MEAN_MOTION_DDOT":0},{"OBJECT_NAME":"SL-8 R/B","OBJECT_ID":"1992-020B","EPOCH":"2026-03-30T04:54:34.188768","MEAN_MOTION":13.75550527,"ECCENTRICITY":0.0027804,"INCLINATION":82.93,"RA_OF_ASC_NODE":138.5295,"ARG_OF_PERICENTER":238.822,"MEAN_ANOMALY":181.7399,"EPHEMERIS_TYPE":0,"CLASSIFICATION_TYPE":"U","NORAD_CAT_ID":21938,"ELEMENT_SET_NO":999,"REV_AT_EPOCH":70395,"BSTAR":2.4167e-5,"MEAN_MOTION_DOT":3.8e-7,"MEAN_MOTION_DDOT":0},{"OBJECT_NAME":"USA 81","OBJECT_ID":"1992-023A","EPOCH":"2026-03-30T01:22:23.236032","MEAN_MOTION":14.32374534,"ECCENTRICITY":0.0001731,"INCLINATION":85.0045,"RA_OF_ASC_NODE":119.6869,"ARG_OF_PERICENTER":68.1415,"MEAN_ANOMALY":291.9962,"EPHEMERIS_TYPE":0,"CLASSIFICATION_TYPE":"U","NORAD_CAT_ID":21949,"ELEMENT_SET_NO":999,"REV_AT_EPOCH":9770,"BSTAR":7.0461e-5,"MEAN_MOTION_DOT":2.1e-6,"MEAN_MOTION_DDOT":0},{"OBJECT_NAME":"COSMOS 2219","OBJECT_ID":"1992-076A","EPOCH":"2026-03-30T02:32:18.218688","MEAN_MOTION":14.1409041,"ECCENTRICITY":0.0017854,"INCLINATION":71.0619,"RA_OF_ASC_NODE":335.3936,"ARG_OF_PERICENTER":176.9053,"MEAN_ANOMALY":183.2183,"EPHEMERIS_TYPE":0,"CLASSIFICATION_TYPE":"U","NORAD_CAT_ID":22219,"ELEMENT_SET_NO":999,"REV_AT_EPOCH":72126,"BSTAR":-9.1527e-5,"MEAN_MOTION_DOT":-2.22e-6,"MEAN_MOTION_DDOT":0},{"OBJECT_NAME":"SL-16 R/B","OBJECT_ID":"1992-076B","EPOCH":"2026-03-30T03:56:58.272576","MEAN_MOTION":14.16863686,"ECCENTRICITY":0.0010734,"INCLINATION":70.9994,"RA_OF_ASC_NODE":145.2471,"ARG_OF_PERICENTER":58.1476,"MEAN_ANOMALY":332.8781,"EPHEMERIS_TYPE":0,"CLASSIFICATION_TYPE":"U","NORAD_CAT_ID":22220,"ELEMENT_SET_NO":999,"REV_AT_EPOCH":72473,"BSTAR":-6.0384e-5,"MEAN_MOTION_DOT":-1.69e-6,"MEAN_MOTION_DDOT":0},{"OBJECT_NAME":"COSMOS 2221","OBJECT_ID":"1992-080A","EPOCH":"2026-03-29T23:13:26.757120","MEAN_MOTION":14.96286734,"ECCENTRICITY":0.0015513,"INCLINATION":82.5006,"RA_OF_ASC_NODE":259.6508,"ARG_OF_PERICENTER":122.0227,"MEAN_ANOMALY":238.2504,"EPHEMERIS_TYPE":0,"CLASSIFICATION_TYPE":"U","NORAD_CAT_ID":22236,"ELEMENT_SET_NO":999,"REV_AT_EPOCH":78382,"BSTAR":0.00026052,"MEAN_MOTION_DOT":2.975e-5,"MEAN_MOTION_DDOT":0},{"OBJECT_NAME":"SL-16 R/B","OBJECT_ID":"1992-093B","EPOCH":"2026-03-30T02:13:10.290144","MEAN_MOTION":14.15455201,"ECCENTRICITY":0.0006533,"INCLINATION":71.023,"RA_OF_ASC_NODE":321.4377,"ARG_OF_PERICENTER":274.0167,"MEAN_ANOMALY":86.0209,"EPHEMERIS_TYPE":0,"CLASSIFICATION_TYPE":"U","NORAD_CAT_ID":22285,"ELEMENT_SET_NO":999,"REV_AT_EPOCH":71604,"BSTAR":0.00010171,"MEAN_MOTION_DOT":1.51e-6,"MEAN_MOTION_DDOT":0},{"OBJECT_NAME":"COSMOS 2228","OBJECT_ID":"1992-094A","EPOCH":"2026-03-30T04:06:11.017440","MEAN_MOTION":14.97297508,"ECCENTRICITY":0.0016942,"INCLINATION":82.5187,"RA_OF_ASC_NODE":217.7001,"ARG_OF_PERICENTER":230.1288,"MEAN_ANOMALY":129.8445,"EPHEMERIS_TYPE":0,"CLASSIFICATION_TYPE":"U","NORAD_CAT_ID":22286,"ELEMENT_SET_NO":999,"REV_AT_EPOCH":77912,"BSTAR":0.00033839,"MEAN_MOTION_DOT":3.959e-5,"MEAN_MOTION_DDOT":0},{"OBJECT_NAME":"SL-16 R/B","OBJECT_ID":"1993-016B","EPOCH":"2026-03-30T04:56:05.248320","MEAN_MOTION":14.15305781,"ECCENTRICITY":0.0012348,"INCLINATION":71.0076,"RA_OF_ASC_NODE":172.095,"ARG_OF_PERICENTER":287.6435,"MEAN_ANOMALY":72.3339,"EPHEMERIS_TYPE":0,"CLASSIFICATION_TYPE":"U","NORAD_CAT_ID":22566,"ELEMENT_SET_NO":999,"REV_AT_EPOCH":70507,"BSTAR":6.7533e-5,"MEAN_MOTION_DOT":8.4e-7,"MEAN_MOTION_DDOT":0},{"OBJECT_NAME":"COSMOS 2242","OBJECT_ID":"1993-024A","EPOCH":"2026-03-30T03:53:18.923712","MEAN_MOTION":14.96637351,"ECCENTRICITY":0.0015178,"INCLINATION":82.5163,"RA_OF_ASC_NODE":247.1288,"ARG_OF_PERICENTER":233.6294,"MEAN_ANOMALY":126.3528,"EPHEMERIS_TYPE":0,"CLASSIFICATION_TYPE":"U","NORAD_CAT_ID":22626,"ELEMENT_SET_NO":999,"REV_AT_EPOCH":78345,"BSTAR":0.00026311,"MEAN_MOTION_DOT":3.03e-5,"MEAN_MOTION_DDOT":0}]
